QIANFAN-172             
1 69389U 26124H   26183.46644847 -.02019775  00000+0 -11195+1 0  9992
2 69389  88.9979   0.2998 0007343 167.3447 192.7926 14.15371581  3986
QIANFAN-173             
1 69390U 26124J   26183.45443956 -.01987419  00000+0 -10849+1 0  9994
2 69390  88.9978   0.2975 0007822 171.4280 188.7043 14.16126224  3983
QIANFAN-174             
1 69391U 26124K   26183.44808035 -.02079526  00000+0 -11235+1 0  9999
2 69391  88.9979   0.2964 0008935 170.5766 189.5591 14.16867809  3986
QIANFAN-175             
1 69392U 26124L   26183.51328824  .00000095  00000+0  37042-4 0  9990
2 69392  88.9985   0.2870 0004877 129.6069 230.5552 14.20946004  3997
QIANFAN-176             
1 69393U 26124M   26183.50649264 -.02050808  00000+0 -11122+1 0  9992
2 69393  88.9979   0.2867 0010919 149.2459 210.9371 14.16593406  3992
QIANFAN-177             
1 69394U 26124N   26183.49476804 -.02013148  00000+0 -10764+1 0  9996
2 69394  88.9980   0.2848 0007735 178.6744 181.4466 14.17291850  3995
QIANFAN-178             
1 69395U 26124P   26183.42976293 -.02050749  00000+0 -10742+1 0  9991
2 69395  88.9976   0.2941 0007290 171.7002 188.4309 14.18476325  3987
QIANFAN-179             
1 69396U 26124Q   26183.41871954 -.01994488  00000+0 -10422+1 0  9990
2 69396  88.9980   0.2926 0007600 167.0249 193.1137 14.18487566  3983
QIANFAN-180             
1 69397U 26124R   26183.48321934 -.01993006  00000+0 -10373+1 0  9996
2 69397  88.9979   0.2823 0008542 164.0455 196.1005 14.18694903  3993
QIANFAN-181             
1 69398U 26124S   26183.44057236 -.01996935  00000+0 -11730+1 0  9996
2 69398  88.9976   0.3151 0005613  76.6451 283.5360 14.12174227  3975
QIANFAN-182             
1 69399U 26124T   26183.48008779 -.02059737  00000+0 -11683+1 0  9997
2 69399  88.9974   0.3013 0004987 148.1962 211.9527 14.14209162  3986
QIANFAN-183             
1 69401U 26125A   26183.59885637  .00000445  00000+0  21639-3 0  9993
2 69401  88.9955 278.7051 0015800 127.8062 232.4560 14.16469981  3886
QIANFAN-184             
1 69402U 26125B   26183.58900287  .00000432  00000+0  20822-3 0  9991
2 69402  88.9956 278.7039 0016602 122.3061 237.9738 14.16890060  3887
QIANFAN-185             
1 69403U 26125C   26183.59713399  .00000439  00000+0  21473-3 0  9999
2 69403  88.9956 278.7051 0017458 122.6980 237.5895 14.16094862  3881
QIANFAN-186             
1 69404U 26125D   26183.57865704  .00000455  00000+0  21715-3 0  9993
2 69404  88.9956 278.7024 0015906 123.6994 236.5714 14.17441065  3885
QIANFAN-187             
1 69405U 26125E   26183.56720758  .00000471  00000+0  22137-3 0  9999
2 69405  88.9956 278.7005 0016441 124.6642 235.6100 14.18351837  3888
QIANFAN-188             
1 69406U 26125F   26183.55308081  .00000472  00000+0  21728-3 0  9996
2 69406  88.9956 278.6982 0016458 128.0057 232.2622 14.19444175  3889
QIANFAN-189             
1 69407U 26125G   26183.55973383  .00000462  00000+0  21555-3 0  9997
2 69407  88.9956 278.6994 0015681 125.6106 234.6547 14.18763034  3887
QIANFAN-190             
1 69408U 26125H   26183.55370645  .00000466  00000+0  21542-3 0  9990
2 69408  88.9956 278.6986 0016475 127.0764 233.1935 14.19226099  3888
QIANFAN-191             
1 69409U 26125J   26183.54130656  .00000117  00000+0  47930-4 0  9999
2 69409  88.9956 278.6966 0015879 126.0702 234.1961 14.20096935  3881
QIANFAN-192             
1 69410U 26125K   26183.60550344  .00000489  00000+0  22094-3 0  9993
2 69410  88.9957 278.6878 0016742 126.0457 234.2288 14.20523715  3898
QIANFAN-193             
1 69411U 26125L   26183.59801581  .00000481  00000+0  21502-3 0  9999
2 69411  88.9956 278.6865 0016624 126.4152 233.8574 14.20966261  3899
QIANFAN-194             
1 69412U 26125M   26183.59223510  .00000498  00000+0  22116-3 0  9990
2 69412  88.9956 278.6855 0015945 129.9262 230.3333 14.21408089  3888
QIANFAN-195             
1 69413U 26125N   26183.58689756  .00000498  00000+0  21957-3 0  9990
2 69413  88.9956 278.6848 0017143 128.5333 231.7398 14.21805490  3891
QIANFAN-196             
1 69414U 26125P   26183.58048119  .00000499  00000+0  21769-3 0  9995
2 69414  88.9956 278.6839 0017262 128.9296 231.3437 14.22300578  3894
QIANFAN-197             
1 69415U 26125Q   26183.57528772  .00000494  00000+0  21369-3 0  9994
2 69415  88.9956 278.6831 0015507 126.2692 233.9935 14.22745011  3883
QIANFAN-198             
1 69416U 26125R   26183.58221883  .00000499  00000+0  21866-3 0  9996
2 69416  88.9956 278.6841 0015815 125.7140 234.5525 14.22071707  3896
QIANFAN-199             
1 69417U 26125S   26183.56516901  .00000510  00000+0  21697-3 0  9999
2 69417  88.9956 278.6814 0017541 126.4527 233.8285 14.23635449  3897
QIANFAN-200             
1 69418U 26125T   26183.54679067  .00000491  00000+0  22547-3 0  9994
2 69418  88.9956 278.6974 0016547 124.8489 235.4260 14.19645149  3882
