OBJECT_NAME,OBJECT_ID,EPOCH,MEAN_MOTION,ECCENTRICITY,INCLINATION,RA_OF_ASC_NODE,ARG_OF_PERICENTER,MEAN_ANOMALY,EPHEMERIS_TYPE,CLASSIFICATION_TYPE,NORAD_CAT_ID,ELEMENT_SET_NO,REV_AT_EPOCH,BSTAR,MEAN_MOTION_DOT,MEAN_MOTION_DDOT
QIANFAN-172,2026-124H,2026-07-02T11:11:41.147808,14.15371581,.00073435,88.9979,0.2998,167.3447,192.7926,0,U,69389,999,398,-.11194505E+1,-.2019775E-1,0
QIANFAN-173,2026-124J,2026-07-02T10:54:23.577984,14.16126224,.0007822,88.9978,0.2975,171.4280,188.7043,0,U,69390,999,398,-.10848639E+1,-.1987419E-1,0
QIANFAN-174,2026-124K,2026-07-02T10:45:14.142240,14.16867809,.00089355,88.9979,0.2964,170.5766,189.5591,0,U,69391,999,398,-.11234603E+1,-.2079526E-1,0
QIANFAN-175,2026-124L,2026-07-02T12:19:08.103936,14.20946004,.00048771,88.9985,0.2870,129.6069,230.5552,0,U,69392,999,399,.37041573E-4,.95E-6,0
QIANFAN-176,2026-124M,2026-07-02T12:09:20.964096,14.16593406,.00109195,88.9979,0.2867,149.2459,210.9371,0,U,69393,999,399,-.11121711E+1,-.2050808E-1,0
QIANFAN-177,2026-124N,2026-07-02T11:52:27.958656,14.17291850,.00077353,88.9980,0.2848,178.6744,181.4466,0,U,69394,999,399,-.10764401E+1,-.2013148E-1,0
QIANFAN-178,2026-124P,2026-07-02T10:18:51.517152,14.18476325,.00072905,88.9976,0.2941,171.7002,188.4309,0,U,69395,999,398,-.10741913E+1,-.2050749E-1,0
QIANFAN-179,2026-124Q,2026-07-02T10:02:57.368256,14.18487566,.00076009,88.9980,0.2926,167.0249,193.1137,0,U,69396,999,398,-.10422305E+1,-.1994488E-1,0
QIANFAN-180,2026-124R,2026-07-02T11:35:50.150976,14.18694903,.00085422,88.9979,0.2823,164.0455,196.1005,0,U,69397,999,399,-.10372942E+1,-.1993006E-1,0
QIANFAN-181,2026-124S,2026-07-02T10:34:25.451904,14.12174227,.00056135,88.9976,0.3151,76.6451,283.5360,0,U,69398,999,397,-.11729881E+1,-.1996935E-1,0
QIANFAN-182,2026-124T,2026-07-02T11:31:19.585056,14.14209162,.00049874,88.9974,0.3013,148.1962,211.9527,0,U,69399,999,398,-.11682839E+1,-.2059737E-1,0
QIANFAN-183,2026-125A,2026-07-02T14:22:21.190368,14.16469981,.00158003,88.9955,278.7051,127.8062,232.4560,0,U,69401,999,388,.21639056E-3,.445E-5,0
QIANFAN-184,2026-125B,2026-07-02T14:08:09.847968,14.16890060,.00166026,88.9956,278.7039,122.3061,237.9738,0,U,69402,999,388,.20821817E-3,.432E-5,0
QIANFAN-185,2026-125C,2026-07-02T14:19:52.376736,14.16094862,.00174585,88.9956,278.7051,122.6980,237.5895,0,U,69403,999,388,.21472637E-3,.439E-5,0
QIANFAN-186,2026-125D,2026-07-02T13:53:15.968256,14.17441065,.0015906,88.9956,278.7024,123.6994,236.5714,0,U,69404,999,388,.21715071E-3,.455E-5,0
QIANFAN-187,2026-125E,2026-07-02T13:36:46.734912,14.18351837,.00164415,88.9956,278.7005,124.6642,235.6100,0,U,69405,999,388,.22136667E-3,.471E-5,0
QIANFAN-188,2026-125F,2026-07-02T13:16:26.181984,14.19444175,.00164586,88.9956,278.6982,128.0057,232.2622,0,U,69406,999,388,.21728051E-3,.472E-5,0
QIANFAN-189,2026-125G,2026-07-02T13:26:01.002912,14.18763034,.00156818,88.9956,278.6994,125.6106,234.6547,0,U,69407,999,388,.2155459E-3,.462E-5,0
QIANFAN-190,2026-125H,2026-07-02T13:17:20.237280,14.19226099,.00164759,88.9956,278.6986,127.0764,233.1935,0,U,69408,999,388,.21542134E-3,.466E-5,0
QIANFAN-191,2026-125J,2026-07-02T12:59:28.886784,14.20096935,.00158791,88.9956,278.6966,126.0702,234.1961,0,U,69409,999,388,.47930489E-4,.117E-5,0
QIANFAN-192,2026-125K,2026-07-02T14:31:55.497216,14.20523715,.00167423,88.9957,278.6878,126.0457,234.2288,0,U,69410,999,389,.22094143E-3,.489E-5,0
QIANFAN-193,2026-125L,2026-07-02T14:21:08.565984,14.20966261,.00166249,88.9956,278.6865,126.4152,233.8574,0,U,69411,999,389,.21502244E-3,.481E-5,0
QIANFAN-194,2026-125M,2026-07-02T14:12:49.112640,14.21408089,.00159459,88.9956,278.6855,129.9262,230.3333,0,U,69412,999,388,.22115521E-3,.498E-5,0
QIANFAN-195,2026-125N,2026-07-02T14:05:07.949184,14.21805490,.00171439,88.9956,278.6848,128.5333,231.7398,0,U,69413,999,389,.21956666E-3,.498E-5,0
QIANFAN-196,2026-125P,2026-07-02T13:55:53.574816,14.22300578,.00172623,88.9956,278.6839,128.9296,231.3437,0,U,69414,999,389,.21768821E-3,.499E-5,0
QIANFAN-197,2026-125Q,2026-07-02T13:48:24.859008,14.22745011,.00155074,88.9956,278.6831,126.2692,233.9935,0,U,69415,999,388,.21368665E-3,.494E-5,0
QIANFAN-198,2026-125R,2026-07-02T13:58:23.706912,14.22071707,.00158156,88.9956,278.6841,125.7140,234.5525,0,U,69416,999,389,.21866375E-3,.499E-5,0
QIANFAN-199,2026-125S,2026-07-02T13:33:50.602464,14.23635449,.00175411,88.9956,278.6814,126.4527,233.8285,0,U,69417,999,389,.21696535E-3,.51E-5,0
QIANFAN-200,2026-125T,2026-07-02T13:07:22.713888,14.19645149,.0016547,88.9956,278.6974,124.8489,235.4260,0,U,69418,999,388,.22547173E-3,.491E-5,0
